$$SOE
2460735.500000000, A.D. 2025-Mar-01 00:00:00.0000, -6.295523636881579E+08, 5.313314210262893E+08, 6.952123539821520E+07,
2460742.500000000, A.D. 2025-Mar-08 00:00:00.0000, -6.347359375015879E+08, 5.259570373350906E+08, 6.939381996429265E+07,
2460749.500000000, A.D. 2025-Mar-15 00:00:00.0000, -6.398650028243068E+08, 5.205374895872797E+08, 6.926044579877123E+07,
2460756.500000000, A.D. 2025-Mar-22 00:00:00.0000, -6.449392184764637E+08, 5.150733302175473E+08, 6.912113530060393E+07,
2460763.500000000, A.D. 2025-Mar-29 00:00:00.0000, -6.499582505788246E+08, 5.095651132187684E+08, 6.897591140486529E+07,
2460770.500000000, A.D. 2025-Apr-05 00:00:00.0000, -6.549217716957374E+08, 5.040133931514725E+08, 6.882479743124026E+07,
2460777.500000000, A.D. 2025-Apr-12 00:00:00.0000, -6.598294602096082E+08, 4.984187251418073E+08, 6.866781703501081E+07,
2460784.500000000, A.D. 2025-Apr-19 00:00:00.0000, -6.646810001141920E+08, 4.927816649871215E+08, 6.850499420541149E+07,
2460791.500000000, A.D. 2025-Apr-26 00:00:00.0000, -6.694760809549960E+08, 4.871027691665785E+08, 6.833635326958102E+07,
2460798.500000000, A.D. 2025-May-03 00:00:00.0000, -6.742143978030531E+08, 4.813825947763693E+08, 6.816191889302468E+07,
2460805.500000000, A.D. 2025-May-10 00:00:00.0000, -6.788956512334150E+08, 4.756216993985296E+08, 6.798171607448214E+07,
2460812.500000000, A.D. 2025-May-17 00:00:00.0000, -6.835195472715899E+08, 4.698206408626106E+08, 6.779577012834090E+07,
2460819.500000000, A.D. 2025-May-24 00:00:00.0000, -6.880857971339574E+08, 4.639799768459773E+08, 6.760410663409084E+07,
2460826.500000000, A.D. 2025-May-31 00:00:00.0000, -6.925941163443538E+08, 4.581002646238934E+08, 6.740675133985955E+07,
2460833.500000000, A.D. 2025-Jun-07 00:00:00.0000, -6.970442236277899E+08, 4.521820621743308E+08, 6.720373015523401E+07,
2460840.500000000, A.D. 2025-Jun-14 00:00:00.0000, -7.014358419459980E+08, 4.462259299708793E+08, 6.699506939575979E+07,
2460847.500000000, A.D. 2025-Jun-21 00:00:00.0000, -7.057687004580363E+08, 4.402324301927090E+08, 6.678079590020132E+07,
2460854.500000000, A.D. 2025-Jun-28 00:00:00.0000, -7.100425342775317E+08, 4.342021251163526E+08, 6.656093687787515E+07,
2460861.500000000, A.D. 2025-Jul-05 00:00:00.0000, -7.142570835432767E+08, 4.281355768457426E+08, 6.633551980144197E+07,
2460868.500000000, A.D. 2025-Jul-12 00:00:00.0000, -7.184120929943404E+08, 4.220333475753257E+08, 6.610457238864335E+07,
2460875.500000000, A.D. 2025-Jul-19 00:00:00.0000, -7.225073118601786E+08, 4.158959998113917E+08, 6.586812260867476E+07,
2460882.500000000, A.D. 2025-Jul-26 00:00:00.0000, -7.265424938558019E+08, 4.097240964952128E+08, 6.562619868940181E+07,
2460889.500000000, A.D. 2025-Aug-02 00:00:00.0000, -7.305173972166039E+08, 4.035182010497890E+08, 6.537882912130177E+07,
2460896.500000000, A.D. 2025-Aug-09 00:00:00.0000, -7.344317847494367E+08, 3.972788773357736E+08, 6.512604265492812E+07,
2460903.500000000, A.D. 2025-Aug-16 00:00:00.0000, -7.382854238229990E+08, 3.910066894536038E+08, 6.486786827984959E+07,
2460910.500000000, A.D. 2025-Aug-23 00:00:00.0000, -7.420780860049157E+08, 3.847022014085765E+08, 6.460433515978031E+07,
2460917.500000000, A.D. 2025-Aug-30 00:00:00.0000, -7.458095460165803E+08, 3.783659773531076E+08, 6.433547255231537E+07,
2460924.500000000, A.D. 2025-Sep-06 00:00:00.0000, -7.494795814239987E+08, 3.719985834065938E+08, 6.406130992534161E+07,
2460931.500000000, A.D. 2025-Sep-13 00:00:00.0000, -7.530879747355627E+08, 3.656005885702692E+08, 6.378187722072460E+07,
2460938.500000000, A.D. 2025-Sep-20 00:00:00.0000, -7.566345146334790E+08, 3.591725630929300E+08, 6.349720483091737E+07,
2460945.500000000, A.D. 2025-Sep-27 00:00:00.0000, -7.601189952800978E+08, 3.527150773991880E+08, 6.320732344589558E+07,
2460952.500000000, A.D. 2025-Oct-04 00:00:00.0000, -7.635412157158567E+08, 3.462287021195590E+08, 6.291226399962050E+07,
2460959.500000000, A.D. 2025-Oct-11 00:00:00.0000, -7.669009797225525E+08, 3.397140082796212E+08, 6.261205767334656E+07,
2460966.500000000, A.D. 2025-Oct-18 00:00:00.0000, -7.701980958682166E+08, 3.331715673741280E+08, 6.230673590736268E+07,
2460973.500000000, A.D. 2025-Oct-25 00:00:00.0000, -7.734323775939517E+08, 3.266019513373744E+08, 6.199633040922545E+07,
2460980.500000000, A.D. 2025-Nov-01 00:00:00.0000, -7.766036433032478E+08, 3.200057324256105E+08, 6.168087315602517E+07,
2460987.500000000, A.D. 2025-Nov-08 00:00:00.0000, -7.797117164192613E+08, 3.133834829804374E+08, 6.136039638478990E+07,
2460994.500000000, A.D. 2025-Nov-15 00:00:00.0000, -7.827564252623041E+08, 3.067357750150237E+08, 6.103493255248974E+07,
2461001.500000000, A.D. 2025-Nov-22 00:00:00.0000, -7.857376023449953E+08, 3.000631798436669E+08, 6.070451424648654E+07,
2461008.500000000, A.D. 2025-Nov-29 00:00:00.0000, -7.886550832384275E+08, 2.933662688901096E+08, 6.036917415202567E+07,
2461015.500000000, A.D. 2025-Dec-06 00:00:00.0000, -7.915087072870084E+08, 2.866456155390190E+08, 6.002894527435341E+07,
2461022.500000000, A.D. 2025-Dec-13 00:00:00.0000, -7.942983197385237E+08, 2.799017946608321E+08, 5.968386110010049E+07,
2461029.500000000, A.D. 2025-Dec-20 00:00:00.0000, -7.970237717961323E+08, 2.731353808335999E+08, 5.933395546103504E+07,
2461036.500000000, A.D. 2025-Dec-27 00:00:00.0000, -7.996849196659164E+08, 2.663469478534631E+08, 5.897926241035958E+07,
2461043.500000000, A.D. 2026-Jan-03 00:00:00.0000, -8.022816240592781E+08, 2.595370689186664E+08, 5.861981619506299E+07,
2461050.500000000, A.D. 2026-Jan-10 00:00:00.0000, -8.048137500404862E+08, 2.527063168089188E+08, 5.825565125881201E+07,
2461057.500000000, A.D. 2026-Jan-17 00:00:00.0000, -8.072811669868205E+08, 2.458552639693785E+08, 5.788680224663462E+07,
2461064.500000000, A.D. 2026-Jan-24 00:00:00.0000, -8.096837485833294E+08, 2.389844825228235E+08, 5.751330400619365E+07,
2461071.500000000, A.D. 2026-Jan-31 00:00:00.0000, -8.120213728287253E+08, 2.320945442035189E+08, 5.713519158299515E+07,
2461078.500000000, A.D. 2026-Feb-07 00:00:00.0000, -8.142939219908584E+08, 2.251860201563522E+08, 5.675250019931372E+07,
2461085.500000000, A.D. 2026-Feb-14 00:00:00.0000, -8.165012822586744E+08, 2.182594805868184E+08, 5.636526519247890E+07,
2461092.500000000, A.D. 2026-Feb-21 00:00:00.0000, -8.186433427030230E+08, 2.113154948396412E+08, 5.597352192423131E+07,
2461099.500000000, A.D. 2026-Feb-28 00:00:00.0000, -8.207199946311308E+08, 2.043546330600477E+08, 5.557730585499779E+07,
2461106.500000000, A.D. 2026-Mar-07 00:00:00.0000, -8.227311333934007E+08, 1.973774674880420E+08, 5.517665281261569E+07,
2461113.500000000, A.D. 2026-Mar-14 00:00:00.0000, -8.246766598668951E+08, 1.903845710531949E+08, 5.477159901037342E+07,
2461120.500000000, A.D. 2026-Mar-21 00:00:00.0000, -8.265564798324202E+08, 1.833765161680115E+08, 5.436218088777408E+07,
2461127.500000000, A.D. 2026-Mar-28 00:00:00.0000, -8.283705032545197E+08, 1.763538747484089E+08, 5.394843504250081E+07,
2461134.500000000, A.D. 2026-Apr-04 00:00:00.0000, -8.301186440682158E+08, 1.693172184955632E+08, 5.353039823019552E+07,
2461141.500000000, A.D. 2026-Apr-11 00:00:00.0000, -8.318008201986923E+08, 1.622671190791692E+08, 5.310810737770443E+07,
2461148.500000000, A.D. 2026-Apr-18 00:00:00.0000, -8.334169536545887E+08, 1.552041482154210E+08, 5.268159959484041E+07,
2461155.500000000, A.D. 2026-Apr-25 00:00:00.0000, -8.349669706488892E+08, 1.481288776544198E+08, 5.225091218187010E+07,
2461162.500000000, A.D. 2026-May-02 00:00:00.0000, -8.364508017164239E+08, 1.410418790474018E+08, 5.181608262768601E+07,
2461169.500000000, A.D. 2026-May-09 00:00:00.0000, -8.378683817030294E+08, 1.339437236275940E+08, 5.137714858199281E+07,
2461176.500000000, A.D. 2026-May-16 00:00:00.0000, -8.392196492480528E+08, 1.268349818430986E+08, 5.093414777827591E+07,
2461183.500000000, A.D. 2026-May-23 00:00:00.0000, -8.405045457080259E+08, 1.197162239642322E+08, 5.048711798641936E+07,
2461190.500000000, A.D. 2026-May-30 00:00:00.0000, -8.417230155997490E+08, 1.125880219848937E+08, 5.003609721171869E+07,
2461197.500000000, A.D. 2026-Jun-06 00:00:00.0000, -8.428750088800781E+08, 1.054509495444671E+08, 4.958112390179734E+07,
2461204.500000000, A.D. 2026-Jun-13 00:00:00.0000, -8.439604813963038E+08, 9.830558006935415E+07, 4.912223684131700E+07,
2461211.500000000, A.D. 2026-Jun-20 00:00:00.0000, -8.449793940078381E+08, 9.115248606024851E+07, 4.865947501935618E+07,
2461218.500000000, A.D. 2026-Jun-27 00:00:00.0000, -8.459317120774552E+08, 8.399223918512736E+07, 4.819287759719101E+07,
2461225.500000000, A.D. 2026-Jul-04 00:00:00.0000, -8.468174053322961E+08, 7.682541040297830E+07, 4.772248391288577E+07,
2461232.500000000, A.D. 2026-Jul-11 00:00:00.0000, -8.476364478408440E+08, 6.965256998635963E+07, 4.724833348835198E+07,
2461239.500000000, A.D. 2026-Jul-18 00:00:00.0000, -8.483888180132755E+08, 6.247428746859065E+07, 4.677046603221856E+07,
2461246.500000000, A.D. 2026-Jul-25 00:00:00.0000, -8.490744986008512E+08, 5.529113151838621E+07, 4.628892143626842E+07,
2461253.500000000, A.D. 2026-Aug-01 00:00:00.0000, -8.496934766463171E+08, 4.810366969393106E+07, 4.580373975690755E+07,
2461260.500000000, A.D. 2026-Aug-08 00:00:00.0000, -8.502457431704862E+08, 4.091246804064666E+07, 4.531496115888211E+07,
2461267.500000000, A.D. 2026-Aug-15 00:00:00.0000, -8.507312921799805E+08, 3.371809098318690E+07, 4.482262581988320E+07,
2461274.500000000, A.D. 2026-Aug-22 00:00:00.0000, -8.511501197572060E+08, 2.652110273308199E+07, 4.432677396558740E+07,
2461281.500000000, A.D. 2026-Aug-29 00:00:00.0000, -8.515022255218095E+08, 1.932206883939686E+07, 4.382744613286765E+07,
2461288.500000000, A.D. 2026-Sep-05 00:00:00.0000, -8.517876143302376E+08, 1.212155501445772E+07, 4.332468323109394E+07,
2461295.500000000, A.D. 2026-Sep-12 00:00:00.0000, -8.520062957584724E+08, 4.920125730562279E+06, 4.281852638034381E+07,
2461302.500000000, A.D. 2026-Sep-19 00:00:00.0000, -8.521582832415866E+08, -2.281655868189884E+06, 4.230901682458221E+07,
$$EOE